OBJECT_NAME,OBJECT_ID,EPOCH,MEAN_MOTION,ECCENTRICITY,INCLINATION,RA_OF_ASC_NODE,ARG_OF_PERICENTER,MEAN_ANOMALY,EPHEMERIS_TYPE,CLASSIFICATION_TYPE,NORAD_CAT_ID,ELEMENT_SET_NO,REV_AT_EPOCH,BSTAR,MEAN_MOTION_DOT,MEAN_MOTION_DDOT
EYESAT A (AO-27),1993-061C,2026-06-05T11:05:53.323008,14.30939099,.0009296,98.6882,223.8798,130.1900,230.0097,0,U,22825,999,70532,.61062E-4,.116E-5,0
ITAMSAT (IO-26),1993-061D,2026-06-05T02:17:58.436736,14.31365384,.0009997,98.6830,223.4296,116.5147,243.7062,0,U,22826,999,70558,.58344E-4,.11E-5,0
RADIO ROSTO (RS15),1994-085A,2026-06-05T16:12:07.724160,11.27583592,.0155597,64.8186,321.8348,6.0031,354.2712,0,U,23439,999,29460,-.17083E-6,-.42E-6,0
JAS-2 (FO-29),1996-046B,2026-06-05T11:33:20.564064,13.53273625,.0350683,98.5250,6.9568,126.7306,236.6586,0,U,24278,999,47158,.47757E-5,-.28E-6,0
FORTE,1997-047A,2026-06-05T09:31:04.910304,14.27940357,.002444,69.9543,40.6533,291.6356,68.2163,0,U,24920,999,49700,.95106E-4,.179E-5,0
TECHSAT 1B (GO-32),1998-043D,2026-06-05T11:22:58.376928,14.24426083,.0000406,99.0065,148.9377,200.1436,159.9726,0,U,25397,999,44966,.51302E-4,.72E-6,0
ISS (ZARYA),1998-067A,2026-06-05T15:27:38.200896,15.49619643,.0007055,51.6330,357.2373,136.8284,223.3259,0,U,25544,999,56996,.16425E-3,.8809E-4,0
IMAGE,2000-017A,2026-06-01T06:23:33.544608,1.68666062,.74437368,94.2162,315.1599,289.6105,8.6041,0,U,26113,999,16123,-.18882371E-1,-.99E-6,0
CLUSTER II-FM7 (SAMBA),2000-041A,2026-06-05T23:36:57.501504,0.44829937,.90409651,149.8917,48.5803,265.6480,0.0292,0,U,26410,999,2025,0,.4453E-4,0
CLUSTER II-FM8 (TANGO),2000-045B,2026-06-03T22:20:35.712960,0.44411373,.90429738,150.1347,49.2777,266.1813,3.2525,0,U,26464,999,2025,0,.9075E-4,0
ODIN,2001-007A,2026-06-05T01:51:31.380192,15.71871760,.00063013,97.3851,196.2749,158.1180,202.0353,0,U,26702,999,38749,.10497223E-2,.138173E-2,0
OMNI-M1,2001-026A,2026-06-05T06:04:02.912736,3.92401553,.001438,44.8344,248.0153,52.0994,308.0825,0,U,26857,999,20510,0,-.11E-6,0
PCSAT (NO-44),2001-043C,2026-06-05T13:33:32.964768,14.31951869,.0006118,67.0513,274.3313,264.0547,95.9858,0,U,26931,999,28878,.87024E-4,.15E-5,0
PROBA-1,2001-049B,2026-06-05T17:16:18.878880,15.07441262,.0055388,97.9595,164.8527,160.1023,200.2382,0,U,26958,999,34189,.96353E-4,.1439E-4,0
SAUDISAT 1C (SO-50),2002-058C,2026-06-05T08:30:32.361408,14.83020070,.0075495,64.5503,165.5947,264.6340,94.6150,0,U,27607,999,26270,.13927E-3,.1035E-4,0
CORIOLIS,2003-001A,2026-06-05T10:18:29.352960,14.19941605,.0012886,98.7127,163.4938,244.9192,115.0647,0,U,27640,999,21255,.72598E-4,.111E-5,0
CUTE-1 (CO-55),2003-031E,2026-06-03T13:11:18.293856,14.24327019,.00086909,98.6736,163.2800,219.4250,140.6297,0,U,27844,999,18973,.16425086E-3,.336E-5,0
CUBESAT XI-IV (CO-57),2003-031J,2026-06-05T06:55:03.051264,14.23614275,.0008404,98.6767,164.7189,234.4870,125.5525,0,U,27848,999,18968,.13217E-3,.257E-5,0
MOZHAETS 4 (RS22),2003-042A,2026-06-05T17:57:41.262336,14.73445231,.0010313,98.3467,340.7841,310.4951,178.3494,0,U,27939,999,21386,.10343E-3,.617E-5,0
